{
"type": "FeatureCollection",
"name": "label_pt_nationalpark",
"features": [
{ "type": "Feature", "properties": { "NAME": "富士箱根伊豆", "name_en": "fuji", "np_code": 17, "English_Name": "Fuji-Hakone-Izu" }, "geometry": { "type": "Point", "coordinates": [ 138.656403155201531, 35.403884063948496 ] } },
{ "type": "Feature", "properties": { "NAME": "中部山岳", "name_en": "chubusangaku", "np_code": 18, "English_Name": "Chubusangaku" }, "geometry": { "type": "Point", "coordinates": [ 137.615976012602744, 36.48055412936975 ] } },
{ "type": "Feature", "properties": { "NAME": "西表石垣", "name_en": "iriomote", "np_code": 35, "English_Name": "Iriomote-Ishigaki" }, "geometry": { "type": "Point", "coordinates": [ 123.781866511330406, 24.058733690207802 ] } },
{ "type": "Feature", "properties": { "NAME": "小笠原", "name_en": "ogasawara", "np_code": 16, "English_Name": "Ogasawara" }, "geometry": { "type": "Point", "coordinates": [ 142.1409130176676, 27.672388676896098 ] } },
{ "type": "Feature", "properties": { "NAME": "霧島錦江湾", "name_en": "kirishima", "np_code": 30, "English_Name": "Kirishima-Kinkowan" }, "geometry": { "type": "Point", "coordinates": [ 130.871600852249173, 31.917534474686448 ] } },
{ "type": "Feature", "properties": { "NAME": "奄美群島", "name_en": "amami", "np_code": 32, "English_Name": "Amamigunto" }, "geometry": { "type": "Point", "coordinates": [ 129.275701617550851, 28.145546374265951 ] } },
{ "type": "Feature", "properties": { "NAME": "大雪山", "name_en": "taisetsu", "np_code": 5, "English_Name": "Daisetsuzan" }, "geometry": { "type": "Point", "coordinates": [ 143.090145498166748, 43.512104074743448 ] } },
{ "type": "Feature", "properties": { "NAME": "やんばる", "name_en": "yambaru", "np_code": 33, "English_Name": "Yambaru" }, "geometry": { "type": "Point", "coordinates": [ 128.278463840920097, 26.763142176320549 ] } },
{ "type": "Feature", "properties": { "NAME": "慶良間諸島", "name_en": "kerama", "np_code": 34, "English_Name": "Keramashoto" }, "geometry": { "type": "Point", "coordinates": [ 127.491644694414646, 26.201791095532798 ] } },
{ "type": "Feature", "properties": { "NAME": "山陰海岸", "name_en": "sanin", "np_code": 23, "English_Name": "San'inkaigan" }, "geometry": { "type": "Point", "coordinates": [ 134.374107317533003, 35.634202709387701 ] } },
{ "type": "Feature", "properties": { "NAME": "阿寒摩周", "name_en": "akan", "np_code": 3, "English_Name": "Akan-Mashu" }, "geometry": { "type": "Point", "coordinates": [ 144.544416963486356, 43.538350628578797 ] } },
{ "type": "Feature", "properties": { "NAME": "上信越高原", "name_en": "jyoshinetsu", "np_code": 13, "English_Name": "Joshin'etsukogen" }, "geometry": { "type": "Point", "coordinates": [ 138.525538569584569, 36.656210000990953 ] } },
{ "type": "Feature", "properties": { "NAME": "瀬戸内海", "name_en": "setonaikai", "np_code": 24, "English_Name": "Setonaikai" }, "geometry": { "type": "Point", "coordinates": [ 133.351279200264344, 34.249800000669651 ] } },
{ "type": "Feature", "properties": { "NAME": "日高山脈襟裳十勝", "name_en": "hidaka", "np_code": 6, "English_Name": "Hidakasanmyaku-Erimo-Tokachi" }, "geometry": { "type": "Point", "coordinates": [ 142.897880590155637, 42.463730017244956 ] } },
{ "type": "Feature", "properties": { "NAME": "屋久島", "name_en": "yakushima", "np_code": 31, "English_Name": "Yakushima (Island)" }, "geometry": { "type": "Point", "coordinates": [ 130.567465267414548, 30.3261391516507 ] } },
{ "type": "Feature", "properties": { "NAME": "吉野熊野", "name_en": "yoshino", "np_code": 22, "English_Name": "Yoshino-Kumano" }, "geometry": { "type": "Point", "coordinates": [ 136.223199075727422, 33.945330187688199 ] } },
{ "type": "Feature", "properties": { "NAME": "南アルプス", "name_en": "minamialps", "np_code": 20, "English_Name": "Minami Alps" }, "geometry": { "type": "Point", "coordinates": [ 138.145611601711096, 35.567324100227196 ] } },
{ "type": "Feature", "properties": { "NAME": "日光", "name_en": "nikko", "np_code": 11, "English_Name": "Nikko" }, "geometry": { "type": "Point", "coordinates": [ 139.797652708175349, 36.952581739106151 ] } },
{ "type": "Feature", "properties": { "NAME": "大山隠岐", "name_en": "daisen", "np_code": 25, "English_Name": "Daisen-Oki" }, "geometry": { "type": "Point", "coordinates": [ 133.644698460996864, 35.324677457348997 ] } },
{ "type": "Feature", "properties": { "NAME": "足摺宇和海", "name_en": "ashizuri", "np_code": 26, "English_Name": "Ashizuri-Uwakai" }, "geometry": { "type": "Point", "coordinates": [ 132.527401363086511, 32.738719781842605 ] } },
{ "type": "Feature", "properties": { "NAME": "支笏洞爺", "name_en": "shikotsu", "np_code": 7, "English_Name": "Shikotsu-Toya" }, "geometry": { "type": "Point", "coordinates": [ 141.307345219960865, 42.7434941690708 ] } },
{ "type": "Feature", "properties": { "NAME": "秩父多摩甲斐", "name_en": "chichibu", "np_code": 15, "English_Name": "Chichibu-Tama-Kai" }, "geometry": { "type": "Point", "coordinates": [ 138.817559267226073, 35.863989229119802 ] } },
{ "type": "Feature", "properties": { "NAME": "阿蘇くじゅう", "name_en": "aso", "np_code": 29, "English_Name": "Aso-Kuju" }, "geometry": { "type": "Point", "coordinates": [ 131.07790418199346, 33.025122380499994 ] } },
{ "type": "Feature", "properties": { "NAME": "利尻礼文サロベツ", "name_en": "rishiri", "np_code": 1, "English_Name": "Rishiri-Rebun-Sarobetsu" }, "geometry": { "type": "Point", "coordinates": [ 141.219190709879513, 45.172971319870655 ] } },
{ "type": "Feature", "properties": { "NAME": "知床", "name_en": "shiretoko", "np_code": 2, "English_Name": "Shiretoko" }, "geometry": { "type": "Point", "coordinates": [ 145.224833231608329, 44.177221227827545 ] } },
{ "type": "Feature", "properties": { "NAME": "三陸復興", "name_en": "sanriku", "np_code": 9, "English_Name": "Sanriku Fukko" }, "geometry": { "type": "Point", "coordinates": [ 142.010834864337767, 39.461615057139355 ] } },
{ "type": "Feature", "properties": { "NAME": "雲仙天草", "name_en": "unzen", "np_code": 28, "English_Name": "Unzen-Amakusa" }, "geometry": { "type": "Point", "coordinates": [ 130.279857821051706, 32.750665994389053 ] } },
{ "type": "Feature", "properties": { "NAME": "尾瀬", "name_en": "oze", "np_code": 12, "English_Name": "Oze" }, "geometry": { "type": "Point", "coordinates": [ 139.284584542759546, 36.966806678335701 ] } },
{ "type": "Feature", "properties": { "NAME": "十和田八幡平", "name_en": "towada", "np_code": 8, "English_Name": "Towada-Hachimantai" }, "geometry": { "type": "Point", "coordinates": [ 140.803428005478224, 39.901168777767047 ] } },
{ "type": "Feature", "properties": { "NAME": "伊勢志摩", "name_en": "ise", "np_code": 21, "English_Name": "Ise-Shima" }, "geometry": { "type": "Point", "coordinates": [ 136.754158693590512, 34.384845780208749 ] } },
{ "type": "Feature", "properties": { "NAME": "西海", "name_en": "saikai", "np_code": 27, "English_Name": "Saikai" }, "geometry": { "type": "Point", "coordinates": [ 128.64779611329152, 32.649695087158705 ] } },
{ "type": "Feature", "properties": { "NAME": "白山", "name_en": "hakusan", "np_code": 19, "English_Name": "Hakusan" }, "geometry": { "type": "Point", "coordinates": [ 136.773889758880102, 36.183294503188947 ] } },
{ "type": "Feature", "properties": { "NAME": "磐梯朝日", "name_en": "bandai", "np_code": 10, "English_Name": "Bandai-Asahi" }, "geometry": { "type": "Point", "coordinates": [ 140.17354267164373, 37.689589596233048 ] } },
{ "type": "Feature", "properties": { "NAME": "妙高戸隠連山", "name_en": "myoko", "np_code": 14, "English_Name": "Myoko-Togakushi renzan" }, "geometry": { "type": "Point", "coordinates": [ 138.224967766085513, 36.825230477155003 ] } },
{ "type": "Feature", "properties": { "NAME": "釧路湿原", "name_en": "kushiro", "np_code": 4, "English_Name": "Kushiroshitsugen" }, "geometry": { "type": "Point", "coordinates": [ 144.425396656323699, 43.136091846711494 ] } }
]
}
